{"type": "FeatureCollection", "features": [ {"type": "Feature", "properties": {"norad_id": 42738, "name": "QZS-2 (QZSS/PRN 194)", "group": "gnss", "lat": 39.656732228142545, "lon": -21.177492256969042, "alt_km": 38953.06102647162, "timestamp": "2025-12-27T06:41:31.170637+00:00", "meta": {"OBJECT_NAME": "QZS-2 (QZSS/PRN 194)", "OBJECT_ID": "2017-028A", "EPOCH": "2025-12-21T12:44:15.516096", "MEAN_MOTION": 1.00280763, "ECCENTRICITY": 0.07561437, "INCLINATION": 39.6996, "RA_OF_ASC_NODE": 245.7532, "ARG_OF_PERICENTER": 269.5788, "MEAN_ANOMALY": 268.1676, "EPHEMERIS_TYPE": 0, "CLASSIFICATION_TYPE": "U", "NORAD_CAT_ID": 42738, "ELEMENT_SET_NO": 999, "REV_AT_EPOCH": 584, "BSTAR": 0, "MEAN_MOTION_DOT": -1.06e-06, "MEAN_MOTION_DDOT": 0}, "tle": {"line1": "1 42738U 17028A   25355.53073514 -.00000106  00000+0  00000+0 0  9996", "line2": "2 42738  39.6996 245.7532 0756143 269.5788 268.1676  1.00280763  5847"}}, "geometry": {"type": "Point", "coordinates": [-21.177492256969042, 39.656732228142545]}}, {"type": "Feature", "properties": {"norad_id": 42917, "name": "QZS-3 (QZSS/PRN 199)", "group": "gnss", "lat": 0.019913403062783545, "lon": -36.70972922341216, "alt_km": 35781.90089673398, "timestamp": "2025-12-27T06:41:31.170650+00:00", "meta": {"OBJECT_NAME": "QZS-3 (QZSS/PRN 199)", "OBJECT_ID": "2017-048A", "EPOCH": "2025-12-25T04:50:38.681376", "MEAN_MOTION": 1.00265271, "ECCENTRICITY": 0.0002002, "INCLINATION": 0.0617, "RA_OF_ASC_NODE": 178.163, "ARG_OF_PERICENTER": 103.2559, "MEAN_ANOMALY": 12.1494, "EPHEMERIS_TYPE": 0, "CLASSIFICATION_TYPE": "U", "NORAD_CAT_ID": 42917, "ELEMENT_SET_NO": 999, "REV_AT_EPOCH": 3051, "BSTAR": 0, "MEAN_MOTION_DOT": -3.27e-06, "MEAN_MOTION_DDOT": 0}, "tle": {"line1": "1 42917U 17048A   25359.20183659 -.00000327  00000+0  00000+0 0  9992", "line2": "2 42917   0.0617 178.1630 0002002 103.2559  12.1494  1.00265271 30518"}}, "geometry": {"type": "Point", "coordinates": [-36.70972922341216, 0.019913403062783545]}}, {"type": "Feature", "properties": {"norad_id": 42939, "name": "COSMOS 2522 (752)", "group": "gnss", "lat": -59.363714288408474, "lon": 142.49914327744503, "alt_km": 19129.123581855394, "timestamp": "2025-12-27T06:41:31.170662+00:00", "meta": {"OBJECT_NAME": "COSMOS 2522 (752)", "OBJECT_ID": "2017-055A", "EPOCH": "2025-12-25T23:11:37.074048", "MEAN_MOTION": 2.13102023, "ECCENTRICITY": 0.00062782, "INCLINATION": 64.0768, "RA_OF_ASC_NODE": 197.7784, "ARG_OF_PERICENTER": 223.1458, "MEAN_ANOMALY": 136.8589, "EPHEMERIS_TYPE": 0, "CLASSIFICATION_TYPE": "U", "NORAD_CAT_ID": 42939, "ELEMENT_SET_NO": 999, "REV_AT_EPOCH": 6428, "BSTAR": 0, "MEAN_MOTION_DOT": 1.1e-06, "MEAN_MOTION_DDOT": 0}, "tle": {"line1": "1 42939U 17055A   25359.96640132  .00000110  00000+0  00000+0 0  9990", "line2": "2 42939  64.0768 197.7784 0006278 223.1458 136.8589  2.13102023 64285"}}, "geometry": {"type": "Point", "coordinates": [142.49914327744503, -59.363714288408474]}}, {"type": "Feature", "properties": {"norad_id": 42965, "name": "QZS-4 (QZSS/PRN 195)", "group": "gnss", "lat": -2.478762609171777, "lon": -17.271159911154783, "alt_km": 35410.36476041043, "timestamp": "2025-12-27T06:41:31.170676+00:00", "meta": {"OBJECT_NAME": "QZS-4 (QZSS/PRN 195)", "OBJECT_ID": "2017-062A", "EPOCH": "2025-12-24T19:47:03.643008", "MEAN_MOTION": 1.00301022, "ECCENTRICITY": 0.0751986, "INCLINATION": 40.2171, "RA_OF_ASC_NODE": 345.7144, "ARG_OF_PERICENTER": 268.3083, "MEAN_ANOMALY": 272.9513, "EPHEMERIS_TYPE": 0, "CLASSIFICATION_TYPE": "U", "NORAD_CAT_ID": 42965, "ELEMENT_SET_NO": 999, "REV_AT_EPOCH": 3005, "BSTAR": 0, "MEAN_MOTION_DOT": -3.02e-06, "MEAN_MOTION_DDOT": 0}, "tle": {"line1": "1 42965U 17062A   25358.82434772 -.00000302  00000+0  00000+0 0  9996", "line2": "2 42965  40.2171 345.7144 0751986 268.3083 272.9513  1.00301022 30053"}}, "geometry": {"type": "Point", "coordinates": [-17.271159911154783, -2.478762609171777]}}, {"type": "Feature", "properties": {"norad_id": 43001, "name": "BEIDOU-3 M1 (C19)", "group": "gnss", "lat": -15.902924557017087, "lon": 57.92136738030856, "alt_km": 21508.99150465822, "timestamp": "2025-12-27T06:41:31.170730+00:00", "meta": {"OBJECT_NAME": "BEIDOU-3 M1 (C19)", "OBJECT_ID": "2017-069A", "EPOCH": "2025-12-25T03:49:47.920224", "MEAN_MOTION": 1.86231313, "ECCENTRICITY": 0.0009789, "INCLINATION": 56.5365, "RA_OF_ASC_NODE": 68.8241, "ARG_OF_PERICENTER": 302.2681, "MEAN_ANOMALY": 57.6912, "EPHEMERIS_TYPE": 0, "CLASSIFICATION_TYPE": "U", "NORAD_CAT_ID": 43001, "ELEMENT_SET_NO": 999, "REV_AT_EPOCH": 5536, "BSTAR": 0, "MEAN_MOTION_DOT": -2.5e-07, "MEAN_MOTION_DDOT": 0}, "tle": {"line1": "1 43001U 17069A   25359.15958241 -.00000025  00000+0  00000+0 0  9996", "line2": "2 43001  56.5365  68.8241 0009789 302.2681  57.6912  1.86231313 55361"}}, "geometry": {"type": "Point", "coordinates": [57.92136738030856, -15.902924557017087]}}, {"type": "Feature", "properties": {"norad_id": 43002, "name": "BEIDOU-3 M2 (C20)", "group": "gnss", "lat": 18.365611409669462, "lon": 81.47269685362262, "alt_km": 21514.960195706404, "timestamp": "2025-12-27T06:41:31.170742+00:00", "meta": {"OBJECT_NAME": "BEIDOU-3 M2 (C20)", "OBJECT_ID": "2017-069B", "EPOCH": "2025-12-25T15:14:16.903968", "MEAN_MOTION": 1.86231039, "ECCENTRICITY": 0.0006764, "INCLINATION": 56.5366, "RA_OF_ASC_NODE": 68.8439, "ARG_OF_PERICENTER": 327.6836, "MEAN_ANOMALY": 32.3283, "EPHEMERIS_TYPE": 0, "CLASSIFICATION_TYPE": "U", "NORAD_CAT_ID": 43002, "ELEMENT_SET_NO": 999, "REV_AT_EPOCH": 5536, "BSTAR": 0, "MEAN_MOTION_DOT": -2.7e-07, "MEAN_MOTION_DDOT": 0}, "tle": {"line1": "1 43002U 17069B   25359.63491787 -.00000027  00000+0  00000+0 0  9999", "line2": "2 43002  56.5366  68.8439 0006764 327.6836  32.3283  1.86231039 55361"}}, "geometry": {"type": "Point", "coordinates": [81.47269685362262, 18.365611409669462]}}, {"type": "Feature", "properties": {"norad_id": 43055, "name": "GSAT0215 (GALILEO 19)", "group": "gnss", "lat": 54.06589910531596, "lon": -59.618871858200805, "alt_km": 23215.85800352069, "timestamp": "2025-12-27T06:41:31.170753+00:00", "meta": {"OBJECT_NAME": "GSAT0215 (GALILEO 19)", "OBJECT_ID": "2017-079A", "EPOCH": "2025-12-24T05:08:42.877824", "MEAN_MOTION": 1.70473983, "ECCENTRICITY": 0.00011857, "INCLINATION": 55.1264, "RA_OF_ASC_NODE": 226.3216, "ARG_OF_PERICENTER": 351.3988, "MEAN_ANOMALY": 8.6951, "EPHEMERIS_TYPE": 0, "CLASSIFICATION_TYPE": "U", "NORAD_CAT_ID": 43055, "ELEMENT_SET_NO": 999, "REV_AT_EPOCH": 5000, "BSTAR": 0, "MEAN_MOTION_DOT": 7.2e-07, "MEAN_MOTION_DDOT": 0}, "tle": {"line1": "1 43055U 17079A   25358.21438516  .00000072  00000+0  00000+0 0  9991", "line2": "2 43055  55.1264 226.3216 0001185 351.3988   8.6951  1.70473983 50002"}}, "geometry": {"type": "Point", "coordinates": [-59.618871858200805, 54.06589910531596]}}, {"type": "Feature", "properties": {"norad_id": 43056, "name": "GSAT0216 (GALILEO 20)", "group": "gnss", "lat": -54.31780569716515, "lon": 122.37717348248688, "alt_km": 23225.088232121587, "timestamp": "2025-12-27T06:41:31.170764+00:00", "meta": {"OBJECT_NAME": "GSAT0216 (GALILEO 20)", "OBJECT_ID": "2017-079B", "EPOCH": "2025-12-25T02:12:49.402944", "MEAN_MOTION": 1.7047407, "ECCENTRICITY": 0.00022728, "INCLINATION": 55.1265, "RA_OF_ASC_NODE": 226.2974, "ARG_OF_PERICENTER": 325.9162, "MEAN_ANOMALY": 34.1608, "EPHEMERIS_TYPE": 0, "CLASSIFICATION_TYPE": "U", "NORAD_CAT_ID": 43056, "ELEMENT_SET_NO": 999, "REV_AT_EPOCH": 5003, "BSTAR": 0, "MEAN_MOTION_DOT": 7e-07, "MEAN_MOTION_DDOT": 0}, "tle": {"line1": "1 43056U 17079B   25359.09223846  .00000070  00000+0  00000+0 0  9995", "line2": "2 43056  55.1265 226.2974 0002272 325.9162  34.1608  1.70474070 50037"}}, "geometry": {"type": "Point", "coordinates": [122.37717348248688, -54.31780569716515]}}, {"type": "Feature", "properties": {"norad_id": 43057, "name": "GSAT0217 (GALILEO 21)", "group": "gnss", "lat": 41.217251563341904, "lon": 8.605501711867586, "alt_km": 23221.33446390253, "timestamp": "2025-12-27T06:41:31.170778+00:00", "meta": {"OBJECT_NAME": "GSAT0217 (GALILEO 21)", "OBJECT_ID": "2017-079C", "EPOCH": "2025-12-24T03:21:20.619936", "MEAN_MOTION": 1.70473665, "ECCENTRICITY": 0.00026088, "INCLINATION": 55.1247, "RA_OF_ASC_NODE": 226.3216, "ARG_OF_PERICENTER": 4.3447, "MEAN_ANOMALY": 355.754, "EPHEMERIS_TYPE": 0, "CLASSIFICATION_TYPE": "U", "NORAD_CAT_ID": 43057, "ELEMENT_SET_NO": 999, "REV_AT_EPOCH": 5000, "BSTAR": 0, "MEAN_MOTION_DOT": 7.2e-07, "MEAN_MOTION_DDOT": 0}, "tle": {"line1": "1 43057U 17079C   25358.13982199  .00000072  00000+0  00000+0 0  9995", "line2": "2 43057  55.1247 226.3216 0002608   4.3447 355.7540  1.70473665 50008"}}, "geometry": {"type": "Point", "coordinates": [8.605501711867586, 41.217251563341904]}}, {"type": "Feature", "properties": {"norad_id": 43058, "name": "GSAT0218 (GALILEO 22)", "group": "gnss", "lat": -7.002746564505291, "lon": -138.66711972404366, "alt_km": 23217.57552357823, "timestamp": "2025-12-27T06:41:31.170789+00:00", "meta": {"OBJECT_NAME": "GSAT0218 (GALILEO 22)", "OBJECT_ID": "2017-079D", "EPOCH": "2025-12-22T00:19:29.615808", "MEAN_MOTION": 1.70473914, "ECCENTRICITY": 0.00024164, "INCLINATION": 55.1256, "RA_OF_ASC_NODE": 226.3779, "ARG_OF_PERICENTER": 315.4078, "MEAN_ANOMALY": 44.6792, "EPHEMERIS_TYPE": 0, "CLASSIFICATION_TYPE": "U", "NORAD_CAT_ID": 43058, "ELEMENT_SET_NO": 999, "REV_AT_EPOCH": 4999, "BSTAR": 0, "MEAN_MOTION_DOT": 7.3e-07, "MEAN_MOTION_DDOT": 0}, "tle": {"line1": "1 43058U 17079D   25356.01353722  .00000073  00000+0  00000+0 0  9996", "line2": "2 43058  55.1256 226.3779 0002416 315.4078  44.6792  1.70473914 49992"}}, "geometry": {"type": "Point", "coordinates": [-138.66711972404366, -7.002746564505291]}}]}